NORAD_CAT_ID,OBJECT_NAME,OBJECT_TYPE,EPOCH,MEAN_MOTION,ECCENTRICITY,INCLINATION,RA_OF_ASC_NODE,ARG_OF_PERICENTER,MEAN_ANOMALY,BSTAR,MEAN_MOTION_DOT,MEAN_MOTION_DDOT,TLE_LINE0,TLE_LINE1,TLE_LINE2,SEMIMAJOR_AXIS,PERIOD,APOGEE,PERIGEE,DECAYED
50181.0,STARLINK-3285,PAYLOAD,2021-12-23 16:00:00,15.98500462,0.0065945,53.218,341.4693,172.3889,42.1868,-0.0013373,-0.00828342,0.0002328,0 STARLINK-3285,1 50181U 21125AB  21357.66667824 -.00828342  23280-3 -13373-2 0  9995,2 50181  53.2180 341.4693 0065945 172.3889  42.1868 15.98500462  3623,6656.715999999999,90.084,322.478,234.683,0.0
50181.0,STARLINK-3285,PAYLOAD,2021-12-24 06:00:00,15.97520754,0.0060233,53.2173,338.4766,174.5233,157.8553,-0.0016385,-0.0091641,0.00027637,0 STARLINK-3285,1 50181U 21125AB  21358.25001157 -.00916410  27637-3 -16385-2 0  9992,2 50181  53.2173 338.4766 0060233 174.5233 157.8553 15.97520754  3714,6659.437,90.14,321.414,241.19,0.0
50181.0,STARLINK-3285,PAYLOAD,2021-12-24 14:00:01,15.96926517,0.0057431,53.2174,336.7669,175.8143,274.3545,-0.0016927,-0.00897178,0.00026435,0 STARLINK-3285,1 50181U 21125AB  21358.58334491 -.00897178  26435-3 -16927-2 0  9994,2 50181  53.2174 336.7669 0057431 175.8143 274.3545 15.96926517  1426,6661.089,90.173,321.209,244.698,0.0
50181.0,STARLINK-3285,PAYLOAD,2021-12-24 22:00:00,15.96323337,0.0054122,53.2177,335.0579,177.1797,30.0789,-0.0017176,-0.00861372,0.00024412,0 STARLINK-3285,1 50181U 21125AB  21358.91667824 -.00861372  24412-3 -17176-2 0  9997,2 50181  53.2177 335.0579 0054122 177.1797  30.0789 15.96323337  3818,6662.767,90.207,320.692,248.571,0.0
50181.0,STARLINK-3285,PAYLOAD,2021-12-25 06:00:00,15.95762252,0.0050452,53.2176,333.3542,179.138,144.4899,-0.001924,-0.00914433,0.00027032,0 STARLINK-3285,1 50181U 21125AB  21359.25001157 -.00914433  27032-3 -19240-2 0  9998,2 50181  53.2176 333.3542 0050452 179.1380 144.4899 15.95762252  3870,6664.328,90.239,319.816,252.57,0.0
50181.0,STARLINK-3285,PAYLOAD,2021-12-25 14:00:01,15.95174096,0.0047958,53.2173,331.6487,181.2342,258.0698,-0.002002,-0.00908239,0.00026543,0 STARLINK-3285,1 50181U 21125AB  21359.58334491 -.00908239  26543-3 -20020-2 0  9995,2 50181  53.2173 331.6487 0047958 181.2342 258.0698 15.95174096  3923,6665.965999999999,90.272,319.8,255.863,0.0
50181.0,STARLINK-3285,PAYLOAD,2021-12-25 22:00:00,15.94567988,0.0045077,53.2175,329.9443,181.8951,12.3873,-0.0020004,-0.00865282,0.00024175,0 STARLINK-3285,1 50181U 21125AB  21359.91667824 -.00865282  24175-3 -20004-2 0  9992,2 50181  53.2175 329.9443 0045077 181.8951  12.3873 15.94567988  3975,6667.655,90.307,319.576,259.465,0.0
50181.0,STARLINK-3285,PAYLOAD,2021-12-26 06:00:02,15.94001793,0.0041485,53.2176,328.2449,184.4735,124.1345,-0.0022038,-0.00908742,0.00026258,0 STARLINK-3285,1 50181U 21125AB  21360.25002315 -.00908742  26258-3 -22038-2 0  9991,2 50181  53.2176 328.2449 0041485 184.4735 124.1345 15.94001793  4033,6669.234,90.339,318.767,263.432,0.0
50181.0,STARLINK-3285,PAYLOAD,2021-12-26 14:00:01,15.93420551,0.0039376,53.2174,326.5436,186.7508,235.3523,-0.0023164,-0.0091716,0.00026544,0 STARLINK-3285,1 50181U 21125AB  21360.58334491 -.00917160  26544-3 -23164-2 0  9993,2 50181  53.2174 326.5436 0039376 186.7508 235.3523 15.93420551  4081,6670.856,90.372,318.988,266.454,0.0
50181.0,STARLINK-3285,PAYLOAD,2021-12-26 22:00:00,15.92812261,0.0036214,53.2176,324.844,188.2842,346.6855,-0.0022955,-0.00869451,0.00023962,0 STARLINK-3285,1 50181U 21125AB  21360.91667824 -.00869451  23962-3 -22955-2 0  9996,2 50181  53.2176 324.8440 0036214 188.2842 346.6855 15.92812261  4137,6672.554,90.406,318.583,270.255,0.0
50181.0,STARLINK-3285,PAYLOAD,2021-12-27 06:00:00,15.92239884,0.003313,53.2174,323.1491,191.0073,96.1116,-0.0024765,-0.0089993,0.00025354,0 STARLINK-3285,1 50181U 21125AB  21361.25001157 -.00899930  25354-3 -24765-2 0  9998,2 50181  53.2174 323.1491 0033130 191.0073  96.1116 15.92239884  4192,6674.153,90.439,318.13,273.907,0.0
50181.0,STARLINK-3285,PAYLOAD,2021-12-27 14:00:01,15.91665766,0.0030906,53.2175,321.452,193.7264,204.8396,-0.0026383,-0.00923393,0.00026411,0 STARLINK-3285,1 50181U 21125AB  21361.58334491 -.00923393  26411-3 -26383-2 0  9998,2 50181  53.2175 321.4520 0030906 193.7264 204.8396 15.91665766  4241,6675.7580000000025,90.471,318.255,276.991,0.0
50181.0,STARLINK-3285,PAYLOAD,2021-12-27 22:00:00,15.91059474,0.0027997,53.2178,319.7567,196.0356,313.2842,-0.0026154,-0.00879922,0.00024069,0 STARLINK-3285,1 50181U 21125AB  21361.91667824 -.00879922  24069-3 -26154-2 0  9995,2 50181  53.2178 319.7567 0027997 196.0356 313.2842 15.91059474  4298,6677.454000000002,90.506,318.014,280.624,0.0
50181.0,STARLINK-3285,PAYLOAD,2021-12-28 06:00:00,15.90477066,0.0025109,53.2176,318.0662,199.4626,59.8975,-0.0027434,-0.00889004,0.00024381,0 STARLINK-3285,1 50181U 21125AB  21362.25001157 -.00889004  24381-3 -27434-2 0  9995,2 50181  53.2176 318.0662 0025109 199.4626  59.8975 15.90477066  4351,6679.084,90.539,317.719,284.178,0.0
50181.0,STARLINK-3285,PAYLOAD,2021-12-28 14:00:01,15.89908549,0.0023167,53.2174,316.3733,202.7277,165.9656,-0.0029517,-0.00924581,0.00026029,0 STARLINK-3285,1 50181U 21125AB  21362.58334491 -.00924581  26029-3 -29517-2 0  9996,2 50181  53.2174 316.3733 0023167 202.7277 165.9656 15.89908549  4405,6680.676,90.571,318.018,287.064,0.0
50181.0,STARLINK-3285,PAYLOAD,2021-12-28 22:00:00,15.89308847,0.0020152,53.2175,314.6826,206.4397,270.893,-0.0029631,-0.00895129,0.00024412,0 STARLINK-3285,1 50181U 21125AB  21362.91667824 -.00895129  24412-3 -29631-2 0  9998,2 50181  53.2175 314.6826 0020152 206.4397 270.8930 15.89308847  4456,6682.356,90.605,317.688,290.755,0.0
50181.0,STARLINK-3285,PAYLOAD,2021-12-29 06:00:02,15.88715221,0.001747,53.2177,312.9962,211.9625,13.3683,-0.0030147,-0.00879942,0.00023538,0 STARLINK-3285,1 50181U 21125AB  21363.25002315 -.00879942  23538-3 -30147-2 0  9991,2 50181  53.2177 312.9962 0017470 211.9625  13.3683 15.88715221  4513,6684.021,90.639,317.563,294.209,0.0
50181.0,STARLINK-3285,PAYLOAD,2021-12-29 14:00:01,15.88147727,0.001584,53.2176,311.3075,217.9757,114.5759,-0.0032448,-0.00917975,0.00025272,0 STARLINK-3285,1 50181U 21125AB  21363.58335648 -.00917975  25272-3 -32448-2 0  9997,2 50181  53.2176 311.3075 0015840 217.9757 114.5759 15.88147727  4564,6685.613,90.672,318.068,296.888,0.0
50181.0,STARLINK-3285,PAYLOAD,2021-12-29 21:40:06,15.87782695,0.0016061,53.2197,309.6947,218.8711,141.1161,-0.00050246,-0.0014295999999999,1.7256e-05,0 STARLINK-3285,1 50181U 21125AB  21363.90285346 -.00142960  17256-4 -50246-3 0  9997,2 50181  53.2197 309.6947 0016061 218.8711 141.1161 15.87782695  5103,6686.638000000001,90.693,319.242,297.763,0.0
50181.0,STARLINK-3285,PAYLOAD,2021-12-29 22:00:00,15.87560573,0.0013481,53.2176,309.6216,225.7535,213.2545,-0.0033387,-0.00836652,0.0,0 STARLINK-3285,1 50181U 21125AB  21363.91667824 -.00836652  00000-0 -33387-2 0  9992,2 50181  53.2176 309.6216 0013481 225.7535 213.2545 15.87560573  4614,6687.261,90.705,318.142,300.111,0.0
50181.0,STARLINK-3285,PAYLOAD,2021-12-30 06:00:00,15.86868091,0.0011571,53.218,307.9398,236.1099,308.7641,-0.002771,-0.00680575,0.0,0 STARLINK-3285,1 50181U 21125AB  21364.25001157 -.00680575  00000-0 -27710-2 0  9995,2 50181  53.2180 307.9398 0011571 236.1099 308.7641 15.86868091  4667,6689.206999999999,90.745,318.812,303.332,0.0
50181.0,STARLINK-3285,PAYLOAD,2021-12-30 14:00:01,15.86256375,0.0009867,53.218,306.2555,250.4302,39.5764,-0.0027403,-0.00653631,0.0,0 STARLINK-3285,1 50181U 21125AB  21364.58334491 -.00653631  00000-0 -27403-2 0  9993,2 50181  53.2180 306.2555 0009867 250.4302  39.5764 15.86256375  2383,6690.926,90.78,319.393,306.189,0.0
50181.0,STARLINK-3285,PAYLOAD,2021-12-30 22:00:01,15.8580654,0.0008830999999999,53.2178,304.5736,261.523,132.892,-0.0036853,-0.00841131,0.0,0 STARLINK-3285,1 50181U 21125AB  21364.91668981 -.00841131  00000-0 -36853-2 0  9997,2 50181  53.2178 304.5736 0008831 261.5230 132.8920 15.85806540  2447,6692.191999999999,90.806,319.967,308.147,0.0
50181.0,STARLINK-3285,PAYLOAD,2021-12-31 14:00:01,15.846197,0.0004261,53.2175,301.2154,268.9565,332.1055,-0.0037799,-0.00813597,0.0,0 STARLINK-3285,1 50181U 21125AB  21365.58334491 -.00813597  00000-0 -37799-2 0  9992,2 50181  53.2175 301.2154 0004261 268.9565 332.1055 15.84619700  2541,6695.533,90.874,320.251,314.545,0.0
50181.0,STARLINK-3285,PAYLOAD,2021-12-31 20:33:20,15.84687224,0.0008502,53.2204,299.8445,267.9427,92.0624,-0.00075118,-0.00175231,0.0,0 STARLINK-3285,1 50181U 21125AB  21365.85648999 -.00175231  00000-0 -75118-3 0  9997,2 50181  53.2204 299.8445 0008502 267.9427  92.0624 15.84687224  5416,6695.343000000003,90.87,322.9,311.515,0.0
50181.0,STARLINK-3285,PAYLOAD,2021-12-31 22:00:00,15.84037585,0.0003057,53.2176,299.5386,289.6495,53.7089,-0.0039194,-0.00819148,0.0,0 STARLINK-3285,1 50181U 21125AB  21365.91667824 -.00819148  00000-0 -39194-2 0  9997,2 50181  53.2176 299.5386 0003057 289.6495  53.7089 15.84037585  4935,6697.1730000000025,90.907,321.085,316.991,0.0
50181.0,STARLINK-3285,PAYLOAD,2022-01-01 12:00:00,15.83018078,5.25e-05,53.2175,296.6079,92.5535,338.1302,-0.0041718999999999,-0.0082857,0.0,0 STARLINK-3285,1 50181U 21125AB  22001.50001157 -.00828570  00000-0 -41719-2 0  9996,2 50181  53.2175 296.6079 0000525  92.5535 338.1302 15.83018078  5028,6700.0480000000025,90.965,322.265,321.561,0.0
50181.0,STARLINK-3285,PAYLOAD,2022-01-01 14:00:01,15.82868402,8.77e-05,53.2177,296.1889,67.1372,118.7706,-0.004173,-0.00823512,0.0,0 STARLINK-3285,1 50181U 21125AB  22001.58335648 -.00823512  00000-0 -41730-2 0  9993,2 50181  53.2177 296.1889 0000877  67.1372 118.7706 15.82868402  2717,6700.471,90.974,322.923,321.748,0.0
50181.0,STARLINK-3285,PAYLOAD,2022-01-01 22:00:00,15.82287229,0.0001109,53.2179,294.5168,71.067,214.958,-0.0043288999999999,-0.00830496,0.0,0 STARLINK-3285,1 50181U 21125AB  22001.91667824 -.00830496  00000-0 -43289-2 0  9994,2 50181  53.2179 294.5168 0001109  71.0670 214.9580 15.82287229  2761,6702.111,91.007,324.719,323.233,0.0
